{
  "type": "FeatureCollection",
  "features": [
    {
      "type": "Feature",
      "properties": {
        "norad_id": 51444,
        "name": "CSG-2",
        "group": "resource",
        "lat": 1.809896374913871,
        "lon": 159.64983159360423,
        "alt_km": 625.2653763885182,
        "timestamp": "2025-12-04T10:51:49.763882+00:00",
        "meta_object_name": "CSG-2",
        "meta_object_id": "2022-008A",
        "meta_epoch": "2025-12-04T04:22:28.460640",
        "meta_mean_motion": 14.82150653,
        "meta_eccentricity": 0.0001485,
        "meta_inclination": 97.8807,
        "meta_ra_of_asc_node": 159.6344,
        "meta_arg_of_pericenter": 89.4163,
        "meta_mean_anomaly": 270.722,
        "meta_ephemeris_type": 0,
        "meta_classification_type": "U",
        "meta_norad_cat_id": 51444,
        "meta_element_set_no": 999,
        "meta_rev_at_epoch": 20770,
        "meta_bstar": 0.00014232,
        "meta_mean_motion_dot": 1.081e-05,
        "meta_mean_motion_ddot": 0,
        "tle_line1": "1 51444U 22008A   25338.18227385  .00001081  00000+0  14232-3 0  9991",
        "tle_line2": "2 51444  97.8807 159.6344 0001485  89.4163 270.7220 14.82150653207701"
      },
      "geometry": {
        "type": "Point",
        "coordinates": [
          159.64983159360423,
          1.809896374913871
        ]
      }
    },
    {
      "type": "Feature",
      "properties": {
        "norad_id": 52912,
        "name": "GAOFEN-12 03",
        "group": "resource",
        "lat": -5.20367909415796,
        "lon": -133.2874901641401,
        "alt_km": 634.0030481634876,
        "timestamp": "2025-12-04T10:51:49.763892+00:00",
        "meta_object_name": "GAOFEN-12 03",
        "meta_object_id": "2022-069A",
        "meta_epoch": "2025-12-03T21:54:10.483776",
        "meta_mean_motion": 14.79576499,
        "meta_eccentricity": 0.00023159,
        "meta_inclination": 97.8487,
        "meta_ra_of_asc_node": 225.4653,
        "meta_arg_of_pericenter": 75.0583,
        "meta_mean_anomaly": 285.0885,
        "meta_ephemeris_type": 0,
        "meta_classification_type": "U",
        "meta_norad_cat_id": 52912,
        "meta_element_set_no": 999,
        "meta_rev_at_epoch": 18573,
        "meta_bstar": 0.00030110527,
        "meta_mean_motion_dot": 2.204e-05,
        "meta_mean_motion_ddot": 0,
        "tle_line1": "1 52912U 22069A   25337.91262134  .00002204  00000+0  30111-3 0  9992",
        "tle_line2": "2 52912  97.8487 225.4653 0002315  75.0583 285.0885 14.79576499185731"
      },
      "geometry": {
        "type": "Point",
        "coordinates": [
          -133.2874901641401,
          -5.20367909415796
        ]
      }
    },
    {
      "type": "Feature",
      "properties": {
        "norad_id": 54754,
        "name": "SWOT",
        "group": "resource",
        "lat": 6.685109555289185,
        "lon": 116.7009935267759,
        "alt_km": 894.8422689218523,
        "timestamp": "2025-12-04T10:51:49.763902+00:00",
        "meta_object_name": "SWOT",
        "meta_object_id": "2022-173A",
        "meta_epoch": "2025-12-03T22:02:08.873664",
        "meta_mean_motion": 14.00172689,
        "meta_eccentricity": 3.233e-05,
        "meta_inclination": 77.6099,
        "meta_ra_of_asc_node": 298.8987,
        "meta_arg_of_pericenter": 138.1609,
        "meta_mean_anomaly": 221.9568,
        "meta_ephemeris_type": 0,
        "meta_classification_type": "U",
        "meta_norad_cat_id": 54754,
        "meta_element_set_no": 999,
        "meta_rev_at_epoch": 15182,
        "meta_bstar": 9.3238503e-05,
        "meta_mean_motion_dot": 1.35e-06,
        "meta_mean_motion_ddot": 0,
        "tle_line1": "1 54754U 22173A   25337.91815826  .00000135  00000+0  93239-4 0  9998",
        "tle_line2": "2 54754  77.6099 298.8987 0000323 138.1609 221.9568 14.00172689151820"
      },
      "geometry": {
        "type": "Point",
        "coordinates": [
          116.7009935267759,
          6.685109555289185
        ]
      }
    },
    {
      "type": "Feature",
      "properties": {
        "norad_id": 57654,
        "name": "GAOFEN-12 04",
        "group": "resource",
        "lat": 17.86102001488191,
        "lon": 76.90431967395288,
        "alt_km": 630.8099389786958,
        "timestamp": "2025-12-04T10:51:49.763913+00:00",
        "meta_object_name": "GAOFEN-12 04",
        "meta_object_id": "2023-123A",
        "meta_epoch": "2025-12-04T05:15:57.283200",
        "meta_mean_motion": 14.79660712,
        "meta_eccentricity": 0.0001458,
        "meta_inclination": 97.9117,
        "meta_ra_of_asc_node": 254.1063,
        "meta_arg_of_pericenter": 73.2364,
        "meta_mean_anomaly": 286.9007,
        "meta_ephemeris_type": 0,
        "meta_classification_type": "U",
        "meta_norad_cat_id": 57654,
        "meta_element_set_no": 999,
        "meta_rev_at_epoch": 12379,
        "meta_bstar": 0.00046524,
        "meta_mean_motion_dot": 3.44e-05,
        "meta_mean_motion_ddot": 0,
        "tle_line1": "1 57654U 23123A   25338.21941300  .00003440  00000+0  46524-3 0  9993",
        "tle_line2": "2 57654  97.9117 254.1063 0001458  73.2364 286.9007 14.79660712123794"
      },
      "geometry": {
        "type": "Point",
        "coordinates": [
          76.90431967395288,
          17.86102001488191
        ]
      }
    },
    {
      "type": "Feature",
      "properties": {
        "norad_id": 59065,
        "name": "PARS 1",
        "group": "resource",
        "lat": 2.6945765462831384,
        "lon": 129.56580428191117,
        "alt_km": 445.4353975104723,
        "timestamp": "2025-12-04T10:51:49.763923+00:00",
        "meta_object_name": "PARS 1",
        "meta_object_id": "2024-039Q",
        "meta_epoch": "2025-12-03T23:11:13.803072",
        "meta_mean_motion": 15.40671996,
        "meta_eccentricity": 0.00126749,
        "meta_inclination": 97.4619,
        "meta_ra_of_asc_node": 308.7158,
        "meta_arg_of_pericenter": 98.1239,
        "meta_mean_anomaly": 262.1445,
        "meta_ephemeris_type": 0,
        "meta_classification_type": "U",
        "meta_norad_cat_id": 59065,
        "meta_element_set_no": 999,
        "meta_rev_at_epoch": 9853,
        "meta_bstar": 0.00044077954,
        "meta_mean_motion_dot": 0.00017962,
        "meta_mean_motion_ddot": 0,
        "tle_line1": "1 59065U 24039Q   25337.96613198  .00017962  00000+0  44078-3 0  9996",
        "tle_line2": "2 59065  97.4619 308.7158 0012674  98.1239 262.1445 15.40671996 98534"
      },
      "geometry": {
        "type": "Point",
        "coordinates": [
          129.56580428191117,
          2.6945765462831384
        ]
      }
    },
    {
      "type": "Feature",
      "properties": {
        "norad_id": 59371,
        "name": "RESURS-P 4",
        "group": "resource",
        "lat": -41.07247320165941,
        "lon": 98.58041394360725,
        "alt_km": 477.94994287377267,
        "timestamp": "2025-12-04T10:51:49.763933+00:00",
        "meta_object_name": "RESURS-P 4",
        "meta_object_id": "2024-061A",
        "meta_epoch": "2025-12-04T03:37:48.134784",
        "meta_mean_motion": 15.31980292,
        "meta_eccentricity": 0.000212,
        "meta_inclination": 97.2532,
        "meta_ra_of_asc_node": 284.6581,
        "meta_arg_of_pericenter": 55.1179,
        "meta_mean_anomaly": 305.0262,
        "meta_ephemeris_type": 0,
        "meta_classification_type": "U",
        "meta_norad_cat_id": 59371,
        "meta_element_set_no": 999,
        "meta_rev_at_epoch": 9389,
        "meta_bstar": 0.00025337,
        "meta_mean_motion_dot": 7.748e-05,
        "meta_mean_motion_ddot": 0,
        "tle_line1": "1 59371U 24061A   25338.15125156  .00007748  00000+0  25337-3 0  9993",
        "tle_line2": "2 59371  97.2532 284.6581 0002120  55.1179 305.0262 15.31980292 93899"
      },
      "geometry": {
        "type": "Point",
        "coordinates": [
          98.58041394360725,
          -41.07247320165941
        ]
      }
    },
    {
      "type": "Feature",
      "properties": {
        "norad_id": 59625,
        "name": "LEGION 1",
        "group": "resource",
        "lat": -11.459522553396418,
        "lon": -128.37233352310597,
        "alt_km": 524.3155420955245,
        "timestamp": "2025-12-04T10:51:49.763943+00:00",
        "meta_object_name": "LEGION 1",
        "meta_object_id": "2024-081A",
        "meta_epoch": "2025-12-04T03:41:13.343424",
        "meta_mean_motion": 15.16346312,
        "meta_eccentricity": 0.0004644,
        "meta_inclination": 97.523,
        "meta_ra_of_asc_node": 52.8663,
        "meta_arg_of_pericenter": 351.8846,
        "meta_mean_anomaly": 8.2311,
        "meta_ephemeris_type": 0,
        "meta_classification_type": "U",
        "meta_norad_cat_id": 59625,
        "meta_element_set_no": 999,
        "meta_rev_at_epoch": 8797,
        "meta_bstar": 0.00056099,
        "meta_mean_motion_dot": 0.00010824,
        "meta_mean_motion_ddot": 0,
        "tle_line1": "1 59625U 24081A   25338.15362666  .00010824  00000+0  56099-3 0  9994",
        "tle_line2": "2 59625  97.5230  52.8663 0004644 351.8846   8.2311 15.16346312 87976"
      },
      "geometry": {
        "type": "Point",
        "coordinates": [
          -128.37233352310597,
          -11.459522553396418
        ]
      }
    }
  ]
}